[{"OBJECT_NAME":"STARLINK-31853","OBJECT_ID":"2024-106M","EPOCH":"2026-03-09T02:35:20.600448","MEAN_MOTION":15.27569782,"ECCENTRICITY":4.231e-5,"INCLINATION":43.0016,"RA_OF_ASC_NODE":335.8243,"ARG_OF_PERICENTER":271.3812,"MEAN_ANOMALY":88.6991,"EPHEMERIS_TYPE":0,"CLASSIFICATION_TYPE":"U","NORAD_CAT_ID":59933,"ELEMENT_SET_NO":999,"REV_AT_EPOCH":10043,"BSTAR":-0.00010545764,"MEAN_MOTION_DOT":-3.161e-5,"MEAN_MOTION_DDOT":0},{"OBJECT_NAME":"FLOCK 4G-34","OBJECT_ID":"2025-009AT","EPOCH":"2026-03-09T17:34:06.952224","MEAN_MOTION":15.27131464,"ECCENTRICITY":6.743e-5,"INCLINATION":97.4004,"RA_OF_ASC_NODE":151.0149,"ARG_OF_PERICENTER":348.828,"MEAN_ANOMALY":11.2944,"EPHEMERIS_TYPE":0,"CLASSIFICATION_TYPE":"U","NORAD_CAT_ID":62650,"ELEMENT_SET_NO":999,"REV_AT_EPOCH":6372,"BSTAR":0.00049338357,"MEAN_MOTION_DOT":0.00013063,"MEAN_MOTION_DDOT":0}]
